NORAD_CAT_ID,OBJECT_NAME,OBJECT_TYPE,EPOCH,MEAN_MOTION,ECCENTRICITY,INCLINATION,RA_OF_ASC_NODE,ARG_OF_PERICENTER,MEAN_ANOMALY,BSTAR,MEAN_MOTION_DOT,MEAN_MOTION_DDOT,TLE_LINE0,TLE_LINE1,TLE_LINE2,SEMIMAJOR_AXIS,PERIOD,APOGEE,PERIGEE,DECAYED
54066.0,STARLINK-5151,PAYLOAD,2024-04-19 12:22:37,15.08840113,0.0001468,53.2159,197.8294,73.906,286.2093,0.00026809,3.981e-05,0.0,0 STARLINK-5151,1 54066U 22136R   24110.51571631  .00003981  00000-0  26809-3 0  9991,2 54066  53.2159 197.8294 0001468  73.9060 286.2093 15.08840113 83284,6917.88,95.438,540.761,538.729,0.0
54066.0,STARLINK-5151,PAYLOAD,2024-04-20 10:38:00,15.08866451,0.0001445,53.2163,193.6632,99.4327,260.6828,0.00054772,8.446e-05,0.0,0 STARLINK-5151,1 54066U 22136R   24111.44306066  .00008446  00000-0  54772-3 0  9993,2 54066  53.2163 193.6632 0001445  99.4327 260.6828 15.08866451 83424,6917.8,95.436,540.664,538.665,0.0
54066.0,STARLINK-5151,PAYLOAD,2024-04-21 10:28:49,15.08821269,0.000152,53.2164,189.2028,102.7845,257.3318,-3.5542e-05,-8.53e-06,0.0,0 STARLINK-5151,1 54066U 22136R   24112.43668638 -.00000853  00000-0 -35542-4 0  9990,2 54066  53.2164 189.2028 0001520 102.7845 257.3318 15.08821269 83090,6917.938,95.439,540.854,538.751,0.0
54066.0,STARLINK-5151,PAYLOAD,2024-04-22 03:58:03,15.08850216,0.0001332,53.2171,185.9366,101.153,258.9612,0.0010629,0.00016673,0.0,0 STARLINK-5151,1 54066U 22136R   24113.16531597  .00016673  00000-0  10629-2 0  9996,2 54066  53.2171 185.9366 0001332 101.1530 258.9612 15.08850216 83684,6917.849,95.437,540.636,538.793,0.0
54066.0,STARLINK-5151,PAYLOAD,2024-04-22 10:19:36,15.08832829,0.0001942,53.2173,184.7495,110.524,249.596,0.00028259,4.211e-05,0.0,0 STARLINK-5151,1 54066U 22136R   24113.43027916  .00004211  00000-0  28259-3 0  9995,2 54066  53.2173 184.7495 0001942 110.5240 249.5960 15.08832829 83722,6917.902,95.438,541.111,538.424,0.0
54066.0,STARLINK-5151,PAYLOAD,2024-04-23 11:45:46,15.08836402,0.0001521,53.2159,179.992,90.7307,269.3859,-0.00042673,-7.072e-05,0.0,0 STARLINK-5151,1 54066U 22136R   24114.49011588 -.00007072  00000-0 -42673-3 0  9996,2 54066  53.2159 179.9920 0001521  90.7307 269.3859 15.08836402 83886,6917.891,95.438,540.809,538.704,0.0
54066.0,STARLINK-5151,PAYLOAD,2024-04-24 13:11:56,15.0883909,0.0001508,53.2148,175.2328,81.2191,278.8971,0.00047698,7.311e-05,0.0,0 STARLINK-5151,1 54066U 22136R   24115.54996444  .00007311  00000-0  47698-3 0  9992,2 54066  53.2148 175.2328 0001508  81.2191 278.8971 15.08839090 84041,6917.883,95.438,540.791,538.705,0.0
54066.0,STARLINK-5151,PAYLOAD,2024-04-25 11:27:21,15.08841101,0.0001514,53.2149,171.0701,82.1035,278.0129,0.00028476,4.247e-05,0.0,0 STARLINK-5151,1 54066U 22136R   24116.47732692  .00004247  00000-0  28476-3 0  9996,2 54066  53.2149 171.0701 0001514  82.1035 278.0129 15.08841101 84183,6917.877,95.437,540.789,538.695,0.0
54066.0,STARLINK-5151,PAYLOAD,2024-04-26 12:53:30,15.0885069,0.0001439,53.2149,166.3111,91.9051,268.2106,0.00033429,5.038e-05,0.0,0 STARLINK-5151,1 54066U 22136R   24117.53716221  .00005038  00000-0  33429-3 0  9997,2 54066  53.2149 166.3111 0001439  91.9051 268.2106 15.08850690 84344,6917.848,95.437,540.708,538.717,0.0
54066.0,STARLINK-5151,PAYLOAD,2024-04-27 12:44:17,15.08856926,0.0001665,53.2167,161.8499,100.0512,260.0668,0.00027239,4.052e-05,0.0,0 STARLINK-5151,1 54066U 22136R   24118.53075325  .00004052  00000-0  27239-3 0  9998,2 54066  53.2167 161.8499 0001665 100.0512 260.0668 15.08856926 84013,6917.829,95.436,540.845,538.542,0.0
54066.0,STARLINK-5151,PAYLOAD,2024-04-28 12:35:04,15.08833194,0.0001284,53.2161,157.3908,94.3846,265.7293,-0.00014201,-2.547e-05,0.0,0 STARLINK-5151,1 54066U 22136R   24119.52436241 -.00002547  00000-0 -14201-3 0  9990,2 54066  53.2161 157.3908 0001284  94.3846 265.7293 15.08833194 84641,6917.901,95.438,540.654,538.878,0.0
54066.0,STARLINK-5151,PAYLOAD,2024-04-28 18:56:37,15.08829206,0.0001311,53.2163,156.2013,87.71,272.4042,-0.00017662,-3.097e-05,0.0,0 STARLINK-5151,1 54066U 22136R   24119.78932589 -.00003097  00000-0 -17662-3 0  9999,2 54066  53.2163 156.2013 0001311  87.7100 272.4042 15.08829206 84206,6917.913,95.438,540.685,538.871,0.0
54066.0,STARLINK-5151,PAYLOAD,2024-04-29 09:15:06,15.08836411,0.0001274,53.2157,153.5249,80.7269,279.3867,2.5466e-05,1.17e-06,0.0,0 STARLINK-5151,1 54066U 22136R   24120.38548681  .00000117  00000-0  25466-4 0  9993,2 54066  53.2157 153.5249 0001274  80.7269 279.3867 15.08836411 84293,6917.891,95.438,540.638,538.875,0.0
54066.0,STARLINK-5151,PAYLOAD,2024-04-29 18:47:24,15.08843415,0.0001271,53.2158,151.7405,78.0818,282.0317,2.7813e-05,1.55e-06,0.0,0 STARLINK-5151,1 54066U 22136R   24120.78292210  .00000155  00000-0  27813-4 0  9991,2 54066  53.2158 151.7405 0001271  78.0818 282.0317 15.08843415 84838,6917.87,95.437,540.614,538.856,0.0
54066.0,STARLINK-5151,PAYLOAD,2024-04-30 05:55:06,15.08833719,0.0001356,53.2158,149.659,74.3138,285.8004,0.00025144,3.715e-05,0.0,0 STARLINK-5151,1 54066U 22136R   24121.24660673  .00003715  00000-0  25144-3 0  9994,2 54066  53.2158 149.6590 0001356  74.3138 285.8004 15.08833719 84905,6917.9,95.438,540.703,538.827,0.0
54066.0,STARLINK-5151,PAYLOAD,2024-04-30 09:05:53,15.08840331,0.0001393,53.215,149.0645,74.2402,285.8744,0.0002951,4.412e-05,0.0,0 STARLINK-5151,1 54066U 22136R   24121.37908601  .00004412  00000-0  29510-3 0  9990,2 54066  53.2150 149.0645 0001393  74.2402 285.8744 15.08840331 84444,6917.879,95.438,540.708,538.781,0.0
54066.0,STARLINK-5151,PAYLOAD,2024-04-30 18:38:11,15.08844627,0.0001408,53.2151,147.2803,73.7682,286.3465,0.00027215,4.047e-05,0.0,0 STARLINK-5151,1 54066U 22136R   24121.77652422  .00004047  00000-0  27215-3 0  9995,2 54066  53.2151 147.2803 0001408  73.7682 286.3465 15.08844627 84507,6917.866,95.437,540.705,538.757,0.0
54066.0,STARLINK-5151,PAYLOAD,2024-05-01 00:59:44,15.08847807,0.0001408,53.2149,146.0907,74.1429,285.9718,0.0002617,3.88e-05,0.0,0 STARLINK-5151,1 54066U 22136R   24122.04148228  .00003880  00000-0  26170-3 0  9993,2 54066  53.2149 146.0907 0001408  74.1429 285.9718 15.08847807 85027,6917.857,95.437,540.696,538.747,0.0
54066.0,STARLINK-5151,PAYLOAD,2024-05-01 05:45:54,15.08837069,0.0001544,53.2164,145.1998,78.2097,281.9069,4.6403e-05,4.51e-06,0.0,0 STARLINK-5151,1 54066U 22136R   24122.24020908  .00000451  00000-0  46403-4 0  9992,2 54066  53.2164 145.1998 0001544  78.2097 281.9069 15.08837069 85058,6917.889,95.438,540.822,538.686,0.0
54066.0,STARLINK-5151,PAYLOAD,2024-05-02 10:22:50,15.08845634,0.0001449,53.2148,139.8452,75.0719,285.0433,8.1853e-05,1.015e-05,0.0,0 STARLINK-5151,1 54066U 22136R   24123.43252399  .00001015  00000-0  81853-4 0  9990,2 54066  53.2148 139.8452 0001449  75.0719 285.0433 15.08845634 85232,6917.863,95.437,540.731,538.726,0.0
54066.0,STARLINK-5151,PAYLOAD,2024-05-03 07:02:50,15.08847102,0.0001417,53.2147,135.9797,80.901,279.2143,0.00023342,3.43e-05,0.0,0 STARLINK-5151,1 54066U 22136R   24124.29364285  .00003430  00000-0  23342-3 0  9994,2 54066  53.2147 135.9797 0001417  80.9010 279.2143 15.08847102 84889,6917.859,95.437,540.704,538.743,0.0
54066.0,STARLINK-5151,PAYLOAD,2024-05-03 18:10:32,15.08850228,0.0001417,53.2146,133.8978,81.5476,278.5677,0.00019521,2.821e-05,0.0,0 STARLINK-5151,1 54066U 22136R   24124.75731963  .00002821  00000-0  19521-3 0  9993,2 54066  53.2146 133.8978 0001417  81.5476 278.5677 15.08850228 85438,6917.849,95.437,540.694,538.734,0.0
54066.0,STARLINK-5151,PAYLOAD,2024-05-04 05:18:15,15.08835337,0.0001427,53.2145,131.816,86.6853,273.4303,-2.6818e-05,-7.15e-06,0.0,0 STARLINK-5151,1 54066U 22136R   24125.22100726 -.00000715  00000-0 -26818-4 0  9993,2 54066  53.2145 131.8160 0001427  86.6853 273.4303 15.08835337 85506,6917.895,95.438,540.747,538.772,0.0
54066.0,STARLINK-5151,PAYLOAD,2024-05-05 09:55:11,15.0884123,0.0001586,53.2174,126.4633,95.773,264.3443,3.6987e-05,3.01e-06,0.0,0 STARLINK-5151,1 54066U 22136R   24126.41332725  .00000301  00000-0  36987-4 0  9998,2 54066  53.2174 126.4633 0001586  95.7730 264.3443 15.08841230 85686,6917.877,95.437,540.839,538.644,0.0
54066.0,STARLINK-5151,PAYLOAD,2024-05-06 06:35:11,15.08842495,0.0001392,53.2161,122.5982,87.2209,272.8942,0.00021497,3.135e-05,0.0,0 STARLINK-5151,1 54066U 22136R   24127.27444437  .00003135  00000-0  21497-3 0  9994,2 54066  53.2161 122.5982 0001392  87.2209 272.8942 15.08842495 85332,6917.873,95.437,540.701,538.775,0.0
54066.0,STARLINK-5151,PAYLOAD,2024-05-07 04:50:36,15.08840582,0.0001363,53.2163,118.4355,87.386,272.7288,8.4972e-05,1.065e-05,0.0,0 STARLINK-5151,1 54066U 22136R   24128.20180891  .00001065  00000-0  84972-4 0  9997,2 54066  53.2163 118.4355 0001363  87.3860 272.7288 15.08840582 85959,6917.879,95.438,540.687,538.801,0.0
54066.0,STARLINK-5151,PAYLOAD,2024-05-07 06:25:59,15.08839214,0.0001369,53.2162,118.1372,85.6271,274.4877,6.6299e-05,7.67e-06,0.0,0 STARLINK-5151,1 54066U 22136R   24128.26804991  .00000767  00000-0  66299-4 0  9997,2 54066  53.2162 118.1372 0001369  85.6271 274.4877 15.08839214 85488,6917.883,95.438,540.695,538.801,0.0
54066.0,STARLINK-5151,PAYLOAD,2024-05-07 15:58:18,15.088422,0.0001427,53.2168,116.353,85.8634,274.2521,7.9809e-05,9.83e-06,0.0,0 STARLINK-5151,1 54066U 22136R   24128.66548718  .00000983  00000-0  79809-4 0  9994,2 54066  53.2168 116.3530 0001427  85.8634 274.2521 15.08842200 85540,6917.874,95.437,540.726,538.751,0.0
54066.0,STARLINK-5151,PAYLOAD,2024-05-08 04:41:23,15.08835109,0.000169,53.2182,113.9761,103.4023,256.7157,-2.1627e-05,-6.32e-06,0.0,0 STARLINK-5151,1 54066U 22136R   24129.19541487 -.00000632  00000-0 -21627-4 0  9997,2 54066  53.2182 113.9761 0001690 103.4023 256.7157 15.08835109 86109,6917.895,95.438,540.929,538.591,0.0
54066.0,STARLINK-5151,PAYLOAD,2024-05-08 06:16:46,15.08835378,0.000163,53.2185,113.6797,100.7393,259.3783,-9.4253e-06,-4.38e-06,0.0,0 STARLINK-5151,1 54066U 22136R   24129.26165439 -.00000438  00000-0 -94253-5 0  9994,2 54066  53.2185 113.6797 0001630 100.7393 259.3783 15.08835378 85631,6917.895,95.438,540.887,538.632,0.0
